JILIN GAOFEN OBJECT B
1 68692U 26080B   26104.41133546  .00000731  00000+0  48723-4 0  9995
2 68692  97.6679 180.0547 0018694 295.8135  64.1166 15.10139116    49
