{
  "norad_id": 68692,
  "name": "JILIN GAOFEN OBJECT B",
  "history": [
    {
      "epoch": "2026-04-14T09:52:19.383744Z",
      "apogee_km": 548.7002257699978,
      "perigee_km": 522.850490245879,
      "latitude_deg": 7.050682669778394e-05,
      "longitude_deg": -170.61421880814584,
      "height_km": 533.2207914925638,
      "semi_major_axis_km": 6913.912358007939,
      "eccentricity": 0.0018694,
      "inclination_deg": 97.6679,
      "raan_deg": 180.0547,
      "arg_perigee_deg": 295.8135,
      "mean_anomaly_deg": 64.1166,
      "mean_motion_rev_day": 15.10139116
    }
  ]
}